ALOS (DAICHI)           
1 28931U 06002A   26066.46062578  .00002256  00000+0  38621-3 0  9996
2 28931  98.1218  22.4273 0001013  56.0843 304.0459 14.69802772 73152
H-2A R/B                
1 28932U 06002B   26066.36560474  .00014763  00000+0  73820-3 0  9990
2 28932  98.2406 213.1891 0051989 249.0451 110.5212 15.16358111 94082
RESURS-DK 1             
1 29228U 06021A   26066.61786594  .00004350  00000+0  25373-3 0  9992
2 29228  69.9312 242.3824 0002097 163.3710 196.7525 15.12726347 87210
CZ-4B R/B               
1 29507U 06046C   26066.63023013  .00006255  00000+0  31715-3 0  9994
2 29507  97.5591 111.5442 0031682 274.8510  84.9106 15.16878919 59733
CZ-2C R/B               
1 31114U 07010B   26066.54193556  .00000197  00000+0  10982-3 0  9995
2 31114  98.3978 179.9284 0057950 300.9738  58.5753 14.20245404979411
COSMO-SKYMED 1          
1 31598U 07023A   26066.59172755  .00005107  00000+0  45453-3 0  9995
2 31598  97.8866 257.6068 0001029 100.3848 259.7489 14.96515354 14598
COSMOS 2428             
1 31792U 07029A   26066.62325498  .00000077  00000+0  67225-4 0  9998
2 31792  70.9429 207.6800 0009021 279.0025  81.0075 14.12945663963803
SL-16 R/B               
1 31793U 07029B   26066.66220306 -.00000024  00000+0  12319-4 0  9992
2 31793  70.9758 176.6463 0002335 276.5354 182.4799 14.14833257965085
KORONAS-FOTON           
1 33504U 09003A   26066.62462918  .00015257  00000+0  34146-3 0  9995
2 33504  82.4274 278.0252 0011149 156.6712 203.5043 15.43264830945421
CZ-2C R/B               
1 37731U 11030B   26066.67391147  .00002624  00000+0  33602-3 0  9994
2 37731  97.8549  23.9774 0052607 358.6330 174.5915 14.81213902789798
H-2A R/B                
1 38341U 12025E   26066.45321245  .00006285  00000+0  56801-3 0  9998
2 38341  98.4739  33.3200 0043495 321.9803  37.8347 14.95145905747882
SHIJIAN-16 (SJ-16)      
1 39358U 13057A   26066.61786517  .00002366  00000+0  23376-3 0  9995
2 39358  74.9735 189.0098 0015547 118.2000 242.0761 14.92331116671191
SL-4 R/B                
1 39679U 14021B   26066.16164549  .00016718  00000+0  36867-3 0  9993
2 39679  51.6088 349.6101 0097798  93.7843 267.4330 15.39078300655885
ALOS-2                  
1 39766U 14029A   26066.62224284  .00001699  00000+0  23427-3 0  9992
2 39766  97.9197 165.2494 0001464  97.5841 262.5537 14.79492156636569
YAOGAN-29               
1 41038U 15069A   26066.63536951  .00000931  00000+0  12132-3 0  9999
2 41038  98.0141  95.0590 0002055  40.5374 319.5992 14.82993668555575
ASTRO-H (HITOMI)        
1 41337U 16012A   26066.51879994  .00004716  00000+0  27738-3 0  9997
2 41337  31.0010  10.5558 0009950 309.3299  50.6457 15.09987840551905
