[{"OBJECT_NAME":"ALOS (DAICHI)","OBJECT_ID":"2006-002A","EPOCH":"2026-03-07T11:03:18.067392","MEAN_MOTION":14.69802772,"ECCENTRICITY":0.00010134,"INCLINATION":98.1218,"RA_OF_ASC_NODE":22.4273,"ARG_OF_PERICENTER":56.0843,"MEAN_ANOMALY":304.0459,"EPHEMERIS_TYPE":0,"CLASSIFICATION_TYPE":"U","NORAD_CAT_ID":28931,"ELEMENT_SET_NO":999,"REV_AT_EPOCH":7315,"BSTAR":0.00038620928,"MEAN_MOTION_DOT":2.256e-5,"MEAN_MOTION_DDOT":0},{"OBJECT_NAME":"H-2A R/B","OBJECT_ID":"2006-002B","EPOCH":"2026-03-07T08:46:28.249536","MEAN_MOTION":15.16358111,"ECCENTRICITY":0.00519892,"INCLINATION":98.2406,"RA_OF_ASC_NODE":213.1891,"ARG_OF_PERICENTER":249.0451,"MEAN_ANOMALY":110.5212,"EPHEMERIS_TYPE":0,"CLASSIFICATION_TYPE":"U","NORAD_CAT_ID":28932,"ELEMENT_SET_NO":999,"REV_AT_EPOCH":9408,"BSTAR":0.00073819671,"MEAN_MOTION_DOT":0.00014763,"MEAN_MOTION_DDOT":0},{"OBJECT_NAME":"RESURS-DK 1","OBJECT_ID":"2006-021A","EPOCH":"2026-03-07T14:49:43.617216","MEAN_MOTION":15.12726347,"ECCENTRICITY":0.00020975,"INCLINATION":69.9312,"RA_OF_ASC_NODE":242.3824,"ARG_OF_PERICENTER":163.371,"MEAN_ANOMALY":196.7525,"EPHEMERIS_TYPE":0,"CLASSIFICATION_TYPE":"U","NORAD_CAT_ID":29228,"ELEMENT_SET_NO":999,"REV_AT_EPOCH":8721,"BSTAR":0.00025372503,"MEAN_MOTION_DOT":4.35e-5,"MEAN_MOTION_DDOT":0},{"OBJECT_NAME":"CZ-4B R/B","OBJECT_ID":"2006-046C","EPOCH":"2026-03-07T15:07:31.883232","MEAN_MOTION":15.16878919,"ECCENTRICITY":0.00316829,"INCLINATION":97.5591,"RA_OF_ASC_NODE":111.5442,"ARG_OF_PERICENTER":274.851,"MEAN_ANOMALY":84.9106,"EPHEMERIS_TYPE":0,"CLASSIFICATION_TYPE":"U","NORAD_CAT_ID":29507,"ELEMENT_SET_NO":999,"REV_AT_EPOCH":5973,"BSTAR":0.00031714524,"MEAN_MOTION_DOT":6.255e-5,"MEAN_MOTION_DDOT":0},{"OBJECT_NAME":"CZ-2C R/B","OBJECT_ID":"2007-010B","EPOCH":"2026-03-07T13:00:23.232384","MEAN_MOTION":14.20245404,"ECCENTRICITY":0.00579507,"INCLINATION":98.3978,"RA_OF_ASC_NODE":179.9284,"ARG_OF_PERICENTER":300.9738,"MEAN_ANOMALY":58.5753,"EPHEMERIS_TYPE":0,"CLASSIFICATION_TYPE":"U","NORAD_CAT_ID":31114,"ELEMENT_SET_NO":999,"REV_AT_EPOCH":97941,"BSTAR":0.00010981542,"MEAN_MOTION_DOT":1.97e-6,"MEAN_MOTION_DDOT":0},{"OBJECT_NAME":"COSMO-SKYMED 1","OBJECT_ID":"2007-023A","EPOCH":"2026-03-07T14:12:05.260320","MEAN_MOTION":14.96515354,"ECCENTRICITY":0.00010295,"INCLINATION":97.8866,"RA_OF_ASC_NODE":257.6068,"ARG_OF_PERICENTER":100.3848,"MEAN_ANOMALY":259.7489,"EPHEMERIS_TYPE":0,"CLASSIFICATION_TYPE":"U","NORAD_CAT_ID":31598,"ELEMENT_SET_NO":999,"REV_AT_EPOCH":1459,"BSTAR":0.00045453477,"MEAN_MOTION_DOT":5.107e-5,"MEAN_MOTION_DDOT":0},{"OBJECT_NAME":"COSMOS 2428","OBJECT_ID":"2007-029A","EPOCH":"2026-03-07T14:57:29.230272","MEAN_MOTION":14.12945663,"ECCENTRICITY":0.00090216,"INCLINATION":70.9429,"RA_OF_ASC_NODE":207.68,"ARG_OF_PERICENTER":279.0025,"MEAN_ANOMALY":81.0075,"EPHEMERIS_TYPE":0,"CLASSIFICATION_TYPE":"U","NORAD_CAT_ID":31792,"ELEMENT_SET_NO":999,"REV_AT_EPOCH":96380,"BSTAR":6.7224884e-5,"MEAN_MOTION_DOT":7.7e-7,"MEAN_MOTION_DDOT":0},{"OBJECT_NAME":"SL-16 R/B","OBJECT_ID":"2007-029B","EPOCH":"2026-03-07T15:53:34.344384","MEAN_MOTION":14.14833257,"ECCENTRICITY":0.00023357,"INCLINATION":70.9758,"RA_OF_ASC_NODE":176.6463,"ARG_OF_PERICENTER":276.5354,"MEAN_ANOMALY":182.4799,"EPHEMERIS_TYPE":0,"CLASSIFICATION_TYPE":"U","NORAD_CAT_ID":31793,"ELEMENT_SET_NO":999,"REV_AT_EPOCH":96508,"BSTAR":1.231883e-5,"MEAN_MOTION_DOT":-2.4e-7,"MEAN_MOTION_DDOT":0},{"OBJECT_NAME":"KORONAS-FOTON","OBJECT_ID":"2009-003A","EPOCH":"2026-03-07T14:59:27.961152","MEAN_MOTION":15.4326483,"ECCENTRICITY":0.00111498,"INCLINATION":82.4274,"RA_OF_ASC_NODE":278.0252,"ARG_OF_PERICENTER":156.6712,"MEAN_ANOMALY":203.5043,"EPHEMERIS_TYPE":0,"CLASSIFICATION_TYPE":"U","NORAD_CAT_ID":33504,"ELEMENT_SET_NO":999,"REV_AT_EPOCH":94542,"BSTAR":0.00034145942,"MEAN_MOTION_DOT":0.00015257,"MEAN_MOTION_DDOT":0},{"OBJECT_NAME":"CZ-2C R/B","OBJECT_ID":"2011-030B","EPOCH":"2026-03-07T16:10:25.951008","MEAN_MOTION":14.81213902,"ECCENTRICITY":0.00526072,"INCLINATION":97.8549,"RA_OF_ASC_NODE":23.9774,"ARG_OF_PERICENTER":358.633,"MEAN_ANOMALY":174.5915,"EPHEMERIS_TYPE":0,"CLASSIFICATION_TYPE":"U","NORAD_CAT_ID":37731,"ELEMENT_SET_NO":999,"REV_AT_EPOCH":78979,"BSTAR":0.00033601822,"MEAN_MOTION_DOT":2.624e-5,"MEAN_MOTION_DDOT":0},{"OBJECT_NAME":"H-2A R/B","OBJECT_ID":"2012-025E","EPOCH":"2026-03-07T10:52:37.555680","MEAN_MOTION":14.95145905,"ECCENTRICITY":0.00434952,"INCLINATION":98.4739,"RA_OF_ASC_NODE":33.32,"ARG_OF_PERICENTER":321.9803,"MEAN_ANOMALY":37.8347,"EPHEMERIS_TYPE":0,"CLASSIFICATION_TYPE":"U","NORAD_CAT_ID":38341,"ELEMENT_SET_NO":999,"REV_AT_EPOCH":74788,"BSTAR":0.00056801476,"MEAN_MOTION_DOT":6.285e-5,"MEAN_MOTION_DDOT":0},{"OBJECT_NAME":"SHIJIAN-16 (SJ-16)","OBJECT_ID":"2013-057A","EPOCH":"2026-03-07T14:49:43.550688","MEAN_MOTION":14.92331116,"ECCENTRICITY":0.00155477,"INCLINATION":74.9735,"RA_OF_ASC_NODE":189.0098,"ARG_OF_PERICENTER":118.2,"MEAN_ANOMALY":242.0761,"EPHEMERIS_TYPE":0,"CLASSIFICATION_TYPE":"U","NORAD_CAT_ID":39358,"ELEMENT_SET_NO":999,"REV_AT_EPOCH":67119,"BSTAR":0.00023375694,"MEAN_MOTION_DOT":2.366e-5,"MEAN_MOTION_DDOT":0},{"OBJECT_NAME":"SL-4 R/B","OBJECT_ID":"2014-021B","EPOCH":"2026-03-07T03:52:46.170336","MEAN_MOTION":15.390783,"ECCENTRICITY":0.00977987,"INCLINATION":51.6088,"RA_OF_ASC_NODE":349.6101,"ARG_OF_PERICENTER":93.7843,"MEAN_ANOMALY":267.433,"EPHEMERIS_TYPE":0,"CLASSIFICATION_TYPE":"U","NORAD_CAT_ID":39679,"ELEMENT_SET_NO":999,"REV_AT_EPOCH":65588,"BSTAR":0.00036867286,"MEAN_MOTION_DOT":0.00016718,"MEAN_MOTION_DDOT":0},{"OBJECT_NAME":"ALOS-2","OBJECT_ID":"2014-029A","EPOCH":"2026-03-07T14:56:01.781376","MEAN_MOTION":14.79492156,"ECCENTRICITY":0.00014648,"INCLINATION":97.9197,"RA_OF_ASC_NODE":165.2494,"ARG_OF_PERICENTER":97.5841,"MEAN_ANOMALY":262.5537,"EPHEMERIS_TYPE":0,"CLASSIFICATION_TYPE":"U","NORAD_CAT_ID":39766,"ELEMENT_SET_NO":999,"REV_AT_EPOCH":63656,"BSTAR":0.00023427486,"MEAN_MOTION_DOT":1.699e-5,"MEAN_MOTION_DDOT":0},{"OBJECT_NAME":"YAOGAN-29","OBJECT_ID":"2015-069A","EPOCH":"2026-03-07T15:14:55.925664","MEAN_MOTION":14.82993668,"ECCENTRICITY":0.00020553,"INCLINATION":98.0141,"RA_OF_ASC_NODE":95.059,"ARG_OF_PERICENTER":40.5374,"MEAN_ANOMALY":319.5992,"EPHEMERIS_TYPE":0,"CLASSIFICATION_TYPE":"U","NORAD_CAT_ID":41038,"ELEMENT_SET_NO":999,"REV_AT_EPOCH":55557,"BSTAR":0.00012132221,"MEAN_MOTION_DOT":9.31e-6,"MEAN_MOTION_DDOT":0},{"OBJECT_NAME":"ASTRO-H (HITOMI)","OBJECT_ID":"2016-012A","EPOCH":"2026-03-07T12:27:04.314816","MEAN_MOTION":15.0998784,"ECCENTRICITY":0.00099502,"INCLINATION":31.001,"RA_OF_ASC_NODE":10.5558,"ARG_OF_PERICENTER":309.3299,"MEAN_ANOMALY":50.6457,"EPHEMERIS_TYPE":0,"CLASSIFICATION_TYPE":"U","NORAD_CAT_ID":41337,"ELEMENT_SET_NO":999,"REV_AT_EPOCH":55190,"BSTAR":0.00027737661,"MEAN_MOTION_DOT":4.716e-5,"MEAN_MOTION_DDOT":0}]
